[{"OBJECT_NAME":"STARLINK-32039","OBJECT_ID":"2024-150X","EPOCH":"2026-03-09T21:24:43.197696","MEAN_MOTION":15.30221565,"ECCENTRICITY":9.665e-5,"INCLINATION":53.1608,"RA_OF_ASC_NODE":308.8395,"ARG_OF_PERICENTER":77.1531,"MEAN_ANOMALY":282.9577,"EPHEMERIS_TYPE":0,"CLASSIFICATION_TYPE":"U","NORAD_CAT_ID":60604,"ELEMENT_SET_NO":999,"REV_AT_EPOCH":8803,"BSTAR":-0.0002168727,"MEAN_MOTION_DOT":-6.781e-5,"MEAN_MOTION_DDOT":0},{"OBJECT_NAME":"OBJECT B","OBJECT_ID":"2024-203B","EPOCH":"2026-03-09T23:52:52.928256","MEAN_MOTION":15.27506959,"ECCENTRICITY":0.00103904,"INCLINATION":97.4268,"RA_OF_ASC_NODE":139.5887,"ARG_OF_PERICENTER":321.1475,"MEAN_ANOMALY":38.9016,"EPHEMERIS_TYPE":0,"CLASSIFICATION_TYPE":"U","NORAD_CAT_ID":61870,"ELEMENT_SET_NO":999,"REV_AT_EPOCH":7381,"BSTAR":0.00063263842,"MEAN_MOTION_DOT":0.00016997,"MEAN_MOTION_DDOT":0}]
